STARLINK-2388           
1 47807U 21018W   26068.70635189  .00000794  00000+0  38947-4 0  9993
2 47807  53.1597 216.6328 0001071  96.2177 263.8945 15.30196777277084
ION SCV-008             
1 55051U 23001AU  26068.82429008  .00008336  00000+0  31423-3 0  9992
2 55051  97.5676 163.6060 0015192   8.5420 351.6074 15.27226640176169
